     2.100          NAVIGATION                              RINEX VERSION / TYPE
fic2rin                                 04/12/2017 00:22:08 PGM / RUN BY / DATE
                                                            END OF HEADER
30 17  4 11  4  0  0.0  .159130431712D-03 -.568434188608D-12  .000000000000D+00
     .220000000000D+02  .117187500000D+02  .519950229443D-08  .227564840781D+01
     .633299350739D-06  .262488552835D-02  .181421637535D-05  .515368877220D+04
     .187200000000D+06 -.447034835815D-07  .155791007684D+01  .745058059692D-08
     .948210163914D+00  .337906250000D+03  .305462452469D+01 -.868214736057D-08
     .614311302817D-10  .100000000000D+01  .194400000000D+04  .000000000000D+00
     .240000000000D+01  .000000000000D+00  .372529029846D-08  .220000000000D+02
     .180006000000D+06  .400000000000D+01
31 17  4 11  4  0  0.0  .207984820008D-03 -.238742359215D-11  .000000000000D+00
     .800000000000D+02  .185000000000D+02  .466055127352D-08  .202394691397D+01
     .107660889626D-05  .846117013134D-02  .236183404922D-05  .515367744827D+04
     .187200000000D+06  .242143869400D-07  .152904719029D+01  .102445483208D-06
     .967227265081D+00  .338375000000D+03 -.262457243529D+00 -.834391898629D-08
     .292869342041D-10  .100000000000D+01  .194400000000D+04  .000000000000D+00
     .240000000000D+01  .000000000000D+00 -.135041773319D-07  .800000000000D+02
     .180006000000D+06  .400000000000D+01
32 17  4 11  4  0  0.0 -.381194520742D-03 -.117097442853D-10  .000000000000D+00
     .630000000000D+02  .720625000000D+02  .432696594979D-08 -.490733031629D+00
     .361725687981D-05  .100051460322D-02  .104419887066D-04  .515371979141D+04
     .187200000000D+06  .149011611938D-07  .442479255174D+00  .130385160446D-07
     .958640082247D+00  .179187500000D+03 -.269312446488D+01 -.799676166865D-08
     .153220667970D-09  .100000000000D+01  .194400000000D+04  .000000000000D+00
     .240000000000D+01  .000000000000D+00  .465661287308D-09  .630000000000D+02
     .180006000000D+06  .400000000000D+01
 2 17  4 11  3 59 44.0  .441762618721D-03 -.738964445191D-11  .000000000000D+00
     .200000000000D+02  .240937500000D+02  .542129724736D-08 -.306145013472D+01
     .129267573357D-05  .167730310932D-01  .318512320518D-05  .515375951004D+04
     .187184000000D+06  .221654772758D-06 -.169168503626D+01 -.273808836937D-06
     .945490432432D+00  .305656250000D+03 -.199213216887D+01 -.840856453618D-08
     .147506144223D-09  .100000000000D+01  .194400000000D+04  .000000000000D+00
     .240000000000D+01  .000000000000D+00 -.204890966415D-07  .200000000000D+02
     .180876000000D+06  .400000000000D+01
18 17  4 11  3 59 44.0  .609808601439D-03  .216004991671D-11  .000000000000D+00
     .200000000000D+01 -.612500000000D+02  .553273046043D-08  .176596678200D+00
    -.304356217384D-05  .179313450353D-01  .846199691296D-05  .515375209236D+04
     .187184000000D+06 -.307336449623D-06 -.640807955949D+00  .614672899246D-07
     .925642635177D+00  .202656250000D+03 -.181567037318D+01 -.884001107909D-08
    -.638955186477D-09  .100000000000D+01  .194400000000D+04  .000000000000D+00
     .240000000000D+01  .000000000000D+00 -.111758708954D-07  .200000000000D+01
     .180876000000D+06  .400000000000D+01
21 17  4 11  3 59 44.0 -.512985046953D-03  .193267624127D-11  .000000000000D+00
     .430000000000D+02  .214687500000D+02  .578131224343D-08  .108220683003D+01
     .782310962677D-06  .240217609098D-01  .424683094025D-05  .515369565964D+04
     .187184000000D+06 -.456348061562D-06 -.168196752831D+01 -.242143869400D-06
     .938838203065D+00  .295812500000D+03 -.168503608383D+01 -.907216360631D-08
     .106433004790D-09  .100000000000D+01  .194400000000D+04  .000000000000D+00
     .240000000000D+01  .000000000000D+00 -.977888703346D-08  .430000000000D+02
     .184266000000D+06  .400000000000D+01
11 17  4 11  3 59 44.0 -.680567231029D-03 -.250111042988D-11  .000000000000D+00
     .300000000000D+01  .667187500000D+02  .623097383078D-08  .226571634244D+01
     .324659049511D-05  .166526066605D-01  .447034835815D-05  .515370052338D+04
     .187184000000D+06  .240281224251D-06 -.203867798116D+01 -.949949026108D-07
     .900046923070D+00  .256093750000D+03  .163252222117D+01 -.871572018759D-08
     .347871633107D-09  .100000000000D+01  .194400000000D+04  .000000000000D+00
     .240000000000D+01  .000000000000D+00 -.121071934700D-07  .300000000000D+01
     .184296000000D+06  .400000000000D+01
17 17  4 11  3 59 44.0 -.184451695532D-03  .159161572810D-11  .000000000000D+00
     .700000000000D+01  .464062500000D+02  .408481300600D-08 -.131973808535D+01
     .263936817646D-05  .116350378376D-01  .115763396025D-04  .515361333084D+04
     .187184000000D+06  .689178705215D-07 -.264511162811D+01  .312924385071D-06
     .979751491085D+00  .167062500000D+03 -.185084799975D+01 -.775639451354D-08
     .513949979508D-09  .100000000000D+01  .194400000000D+04  .000000000000D+00
     .240000000000D+01  .000000000000D+00 -.107102096081D-07  .700000000000D+01
     .184956000000D+06  .400000000000D+01
 2 17  4 11  5 59 44.0  .441709067672D-03 -.738964445191D-11  .000000000000D+00
     .210000000000D+02  .233750000000D+02  .541701135455D-08 -.201131686340D+01
     .136904418468D-05  .167732187547D-01  .310130417347D-05  .515375918770D+04
     .194384000000D+06  .238418579102D-06 -.169174657391D+01  .931322574615D-08
     .945492424926D+00  .307218750000D+03 -.199212964388D+01 -.840963600938D-08
     .339657005220D-09  .100000000000D+01  .194400000000D+04  .000000000000D+00
     .240000000000D+01  .000000000000D+00 -.204890966415D-07  .210000000000D+02
     .187206000000D+06  .400000000000D+01
11 17  4 11  5 59 44.0 -.680584926158D-03 -.250111042988D-11  .000000000000D+00
     .320000000000D+02  .701875000000D+02  .623418825039D-08 -.296731053854D+01
     .349432229996D-05  .166519178310D-01  .471621751785D-05  .515370191574D+04
     .194384000000D+06  .286847352982D-06 -.203874153909D+01  .130385160446D-06
     .900049714318D+00  .251968750000D+03  .163254065394D+01 -.872964933922D-08
     .496092092798D-09  .100000000000D+01  .194400000000D+04  .000000000000D+00
     .240000000000D+01  .000000000000D+00 -.121071934700D-07  .320000000000D+02
     .187206000000D+06  .400000000000D+01
17 17  4 11  5 59 44.0 -.184440519661D-03  .159161572810D-11  .000000000000D+00
     .470000000000D+02  .427187500000D+02  .408409869053D-08 -.269497627486D+00
     .214390456676D-05  .116347125731D-01  .115614384413D-04  .515361330414D+04
     .194384000000D+06 -.124797224998D-06 -.264516870532D+01  .158324837685D-06
     .979754608564D+00  .172562500000D+03 -.185087405579D+01 -.793568769610D-08
     .547165648788D-09  .100000000000D+01  .194400000000D+04  .000000000000D+00
     .240000000000D+01  .000000000000D+00 -.107102096081D-07  .470000000000D+02
     .187206000000D+06  .400000000000D+01
18 17  4 11  5 59 44.0  .609823968261D-03  .216004991671D-11  .000000000000D+00
     .380000000000D+02 -.772500000000D+02  .549915763342D-08  .122663639591D+01
    -.415742397308D-05  .179329958046D-01  .900961458683D-05  .515375673866D+04
     .194384000000D+06 -.339001417160D-06 -.640871686512D+00 -.214204192162D-06
     .925637908489D+00  .195937500000D+03 -.181557077333D+01 -.875536469608D-08
    -.652527180376D-09  .100000000000D+01  .194400000000D+04  .000000000000D+00
     .240000000000D+01  .000000000000D+00 -.111758708954D-07  .380000000000D+02
     .187206000000D+06  .400000000000D+01
21 17  4 11  5 59 44.0 -.512971077114D-03  .193267624127D-11  .000000000000D+00
     .460000000000D+02  .241875000000D+02  .547629953843D-08  .213233440474D+01
     .832602381706D-06  .240215046797D-01  .313296914101D-05  .515369783211D+04
     .194384000000D+06  .275671482086D-06 -.168203032114D+01 -.301748514175D-06
     .938842464546D+00  .304218750000D+03 -.168498852290D+01 -.832748973052D-08
     .135005623526D-09  .100000000000D+01  .194400000000D+04  .000000000000D+00
     .240000000000D+01  .000000000000D+00 -.977888703346D-08  .460000000000D+02
     .187206000000D+06  .400000000000D+01
 1 17  4 11  6  0  0.0  .530681572855D-04  .568434188608D-12  .000000000000D+00
     .160000000000D+02  .165937500000D+02  .496377818986D-08 -.235300802347D+01
     .746920704842D-06  .645043700933D-02  .375136733055D-05  .515368072128D+04
     .194400000000D+06  .912696123123D-07 -.163933457131D+01 -.141561031342D-06
     .966569370340D+00  .310531250000D+03  .535376743196D+00 -.832713257278D-08
     .190007914592D-09  .100000000000D+01  .194400000000D+04  .000000000000D+00
     .240000000000D+01  .000000000000D+00  .512227416039D-08  .160000000000D+02
     .187206000000D+06  .400000000000D+01
 3 17  4 11  6  0  0.0 -.104749575257D-03  .113686837722D-11  .000000000000D+00
     .940000000000D+02 -.530625000000D+02  .453411743562D-08 -.304249259772D+01
    -.285729765892D-05  .566113507375D-03  .910088419914D-05  .515376601601D+04
     .194400000000D+06 -.689178705215D-07 -.596696474460D+00  .279396772385D-07
     .959936850869D+00  .201375000000D+03  .123440555006D+00 -.801961976364D-08
    -.569309428309D-09  .100000000000D+01  .194400000000D+04  .000000000000D+00
     .240000000000D+01  .000000000000D+00  .186264514923D-08  .940000000000D+02
     .187206000000D+06  .400000000000D+01
 4 17  4 11  6  0  0.0  .172387808561D-05  .568434188608D-12  .000000000000D+00
     .106000000000D+03 -.910625000000D+02  .525700468963D-08  .883753362823D+00
    -.475905835629D-05  .913265685085D-02  .857561826706D-05  .515374383926D+04
     .194400000000D+06 -.126659870148D-06  .257017339642D+01 -.745058059692D-08
     .982290103068D+00  .227468750000D+03  .890024743412D+00 -.794175937758D-08
    -.416803075807D-09  .100000000000D+01  .194400000000D+04  .000000000000D+00
     .485000000000D+01  .630000000000D+02 -.195577740669D-07  .106000000000D+03
     .187206000000D+06  .400000000000D+01
